{
  "type": "FeatureCollection",
  "features": [
    {
      "type": "Feature",
      "properties": {
        "norad_id": 66611,
        "name": "STARLINK-35583",
        "group": "last-30-days",
        "lat": 17.261168420172858,
        "lon": 177.4959161758401,
        "alt_km": 412.61156762713836,
        "timestamp": "2025-12-18T15:47:09.959425+00:00",
        "meta_object_name": "STARLINK-35583",
        "meta_object_id": "2025-270Z",
        "meta_epoch": "2025-12-17T22:40:12.877536",
        "meta_mean_motion": 15.50580793,
        "meta_eccentricity": 0.00013729,
        "meta_inclination": 42.9985,
        "meta_ra_of_asc_node": 162.1895,
        "meta_arg_of_pericenter": 256.2335,
        "meta_mean_anomaly": 103.8372,
        "meta_ephemeris_type": 0,
        "meta_classification_type": "U",
        "meta_norad_cat_id": 66611,
        "meta_element_set_no": 999,
        "meta_rev_at_epoch": 526,
        "meta_bstar": 0.0008749784,
        "meta_mean_motion_dot": 0.0005133,
        "meta_mean_motion_ddot": 0,
        "tle_line1": "1 66611U 25270Z   25351.94459349  .00051330  00000+0  87498-3 0  9999",
        "tle_line2": "2 66611  42.9985 162.1895 0001372 256.2335 103.8372 15.50580793  5260"
      },
      "geometry": {
        "type": "Point",
        "coordinates": [
          177.4959161758401,
          17.261168420172858
        ]
      }
    },
    {
      "type": "Feature",
      "properties": {
        "norad_id": 66612,
        "name": "STARLINK-36039",
        "group": "last-30-days",
        "lat": 1.4115617586597737,
        "lon": -22.994778293759992,
        "alt_km": 443.6789279900968,
        "timestamp": "2025-12-18T15:47:09.959435+00:00",
        "meta_object_name": "STARLINK-36039",
        "meta_object_id": "2025-270AA",
        "meta_epoch": "2025-12-18T04:07:36.725376",
        "meta_mean_motion": 15.40728192,
        "meta_eccentricity": 0.00017448,
        "meta_inclination": 42.9985,
        "meta_ra_of_asc_node": 161.321,
        "meta_arg_of_pericenter": 277.5433,
        "meta_mean_anomaly": 82.5225,
        "meta_ephemeris_type": 0,
        "meta_classification_type": "U",
        "meta_norad_cat_id": 66612,
        "meta_element_set_no": 999,
        "meta_rev_at_epoch": 518,
        "meta_bstar": 0.001096228,
        "meta_mean_motion_dot": 0.00045807,
        "meta_mean_motion_ddot": 0,
        "tle_line1": "1 66612U 25270AA  25352.17195284  .00045807  00000+0  10962-2 0  9994",
        "tle_line2": "2 66612  42.9985 161.3210 0001744 277.5433  82.5225 15.40728192  5188"
      },
      "geometry": {
        "type": "Point",
        "coordinates": [
          -22.994778293759992,
          1.4115617586597737
        ]
      }
    },
    {
      "type": "Feature",
      "properties": {
        "norad_id": 66613,
        "name": "STARLINK-36037",
        "group": "last-30-days",
        "lat": -15.325526494511275,
        "lon": -4.435947142066881,
        "alt_km": 445.08842363349686,
        "timestamp": "2025-12-18T15:47:09.959445+00:00",
        "meta_object_name": "STARLINK-36037",
        "meta_object_id": "2025-270AB",
        "meta_epoch": "2025-12-18T04:01:09.728544",
        "meta_mean_motion": 15.40726465,
        "meta_eccentricity": 0.00013054,
        "meta_inclination": 42.9984,
        "meta_ra_of_asc_node": 161.2864,
        "meta_arg_of_pericenter": 273.1571,
        "meta_mean_anomaly": 86.9136,
        "meta_ephemeris_type": 0,
        "meta_classification_type": "U",
        "meta_norad_cat_id": 66613,
        "meta_element_set_no": 999,
        "meta_rev_at_epoch": 518,
        "meta_bstar": 0.0012389317,
        "meta_mean_motion_dot": 0.00051848,
        "meta_mean_motion_ddot": 0,
        "tle_line1": "1 66613U 25270AB  25352.16747371  .00051848  00000+0  12389-2 0  9991",
        "tle_line2": "2 66613  42.9984 161.2864 0001305 273.1571  86.9136 15.40726465  5180"
      },
      "geometry": {
        "type": "Point",
        "coordinates": [
          -4.435947142066881,
          -15.325526494511275
        ]
      }
    },
    {
      "type": "Feature",
      "properties": {
        "norad_id": 66614,
        "name": "STARLINK-36040",
        "group": "last-30-days",
        "lat": -29.082099526904926,
        "lon": 121.54241086200804,
        "alt_km": 445.52359616484955,
        "timestamp": "2025-12-18T15:47:09.959455+00:00",
        "meta_object_name": "STARLINK-36040",
        "meta_object_id": "2025-270AC",
        "meta_epoch": "2025-12-18T06:00:02.999808",
        "meta_mean_motion": 15.40692497,
        "meta_eccentricity": 0.00020167,
        "meta_inclination": 42.9995,
        "meta_ra_of_asc_node": 160.5384,
        "meta_arg_of_pericenter": 278.7993,
        "meta_mean_anomaly": 291.6634,
        "meta_ephemeris_type": 0,
        "meta_classification_type": "U",
        "meta_norad_cat_id": 66614,
        "meta_element_set_no": 999,
        "meta_rev_at_epoch": 512,
        "meta_bstar": 0.00038333451,
        "meta_mean_motion_dot": 0.00015738,
        "meta_mean_motion_ddot": 0,
        "tle_line1": "1 66614U 25270AC  25352.25003472  .00015738  00000+0  38333-3 0  9995",
        "tle_line2": "2 66614  42.9995 160.5384 0002016 278.7993 291.6634 15.40692497  5120"
      },
      "geometry": {
        "type": "Point",
        "coordinates": [
          121.54241086200804,
          -29.082099526904926
        ]
      }
    },
    {
      "type": "Feature",
      "properties": {
        "norad_id": 66615,
        "name": "STARLINK-35988",
        "group": "last-30-days",
        "lat": -36.17316312030401,
        "lon": 30.06054820194514,
        "alt_km": 445.96020325514655,
        "timestamp": "2025-12-18T15:47:09.959466+00:00",
        "meta_object_name": "STARLINK-35988",
        "meta_object_id": "2025-270AD",
        "meta_epoch": "2025-12-18T06:00:02.999808",
        "meta_mean_motion": 15.40706812,
        "meta_eccentricity": 0.00015787,
        "meta_inclination": 42.9989,
        "meta_ra_of_asc_node": 160.7205,
        "meta_arg_of_pericenter": 245.2808,
        "meta_mean_anomaly": 250.5107,
        "meta_ephemeris_type": 0,
        "meta_classification_type": "U",
        "meta_norad_cat_id": 66615,
        "meta_element_set_no": 999,
        "meta_rev_at_epoch": 512,
        "meta_bstar": 0.00065072476,
        "meta_mean_motion_dot": 0.00026981,
        "meta_mean_motion_ddot": 0,
        "tle_line1": "1 66615U 25270AD  25352.25003472  .00026981  00000+0  65072-3 0  9998",
        "tle_line2": "2 66615  42.9989 160.7205 0001578 245.2808 250.5107 15.40706812  5120"
      },
      "geometry": {
        "type": "Point",
        "coordinates": [
          30.06054820194514,
          -36.17316312030401
        ]
      }
    },
    {
      "type": "Feature",
      "properties": {
        "norad_id": 66616,
        "name": "STARLINK-35391",
        "group": "last-30-days",
        "lat": -13.866545057096081,
        "lon": 142.7665041007996,
        "alt_km": 444.9211465422586,
        "timestamp": "2025-12-18T15:47:09.959478+00:00",
        "meta_object_name": "STARLINK-35391",
        "meta_object_id": "2025-270AE",
        "meta_epoch": "2025-12-18T06:00:02.999808",
        "meta_mean_motion": 15.40665319,
        "meta_eccentricity": 0.0001658,
        "meta_inclination": 42.9998,
        "meta_ra_of_asc_node": 160.4781,
        "meta_arg_of_pericenter": 275.5704,
        "meta_mean_anomaly": 319.8374,
        "meta_ephemeris_type": 0,
        "meta_classification_type": "U",
        "meta_norad_cat_id": 66616,
        "meta_element_set_no": 999,
        "meta_rev_at_epoch": 539,
        "meta_bstar": 0.00062545807,
        "meta_mean_motion_dot": 0.00025882,
        "meta_mean_motion_ddot": 0,
        "tle_line1": "1 66616U 25270AE  25352.25003472  .00025882  00000+0  62546-3 0  9991",
        "tle_line2": "2 66616  42.9998 160.4781 0001658 275.5704 319.8374 15.40665319  5397"
      },
      "geometry": {
        "type": "Point",
        "coordinates": [
          142.7665041007996,
          -13.866545057096081
        ]
      }
    },
    {
      "type": "Feature",
      "properties": {
        "norad_id": 66617,
        "name": "STARLINK-35940",
        "group": "last-30-days",
        "lat": -33.96811109815531,
        "lon": 9.535640842142577,
        "alt_km": 451.2506891782923,
        "timestamp": "2025-12-18T15:47:09.959488+00:00",
        "meta_object_name": "STARLINK-35940",
        "meta_object_id": "2025-271A",
        "meta_epoch": "2025-12-18T06:00:02.999808",
        "meta_mean_motion": 15.39604775,
        "meta_eccentricity": 0.00014524,
        "meta_inclination": 53.1584,
        "meta_ra_of_asc_node": 161.1186,
        "meta_arg_of_pericenter": 132.6488,
        "meta_mean_anomaly": 350.4334,
        "meta_ephemeris_type": 0,
        "meta_classification_type": "U",
        "meta_norad_cat_id": 66617,
        "meta_element_set_no": 999,
        "meta_rev_at_epoch": 512,
        "meta_bstar": 0.0011280982,
        "meta_mean_motion_dot": 0.00044967,
        "meta_mean_motion_ddot": 0,
        "tle_line1": "1 66617U 25271A   25352.25003472  .00044967  00000+0  11281-2 0  9997",
        "tle_line2": "2 66617  53.1584 161.1186 0001452 132.6488 350.4334 15.39604775  5129"
      },
      "geometry": {
        "type": "Point",
        "coordinates": [
          9.535640842142577,
          -33.96811109815531
        ]
      }
    }
  ]
}